[{"OBJECT_NAME":"STARLINK-5950","OBJECT_ID":"2023-083AP","EPOCH":"2026-03-09T22:00:01.999584","MEAN_MOTION":15.09427905,"ECCENTRICITY":0.00019698,"INCLINATION":43.0011,"RA_OF_ASC_NODE":67.6777,"ARG_OF_PERICENTER":271.5612,"MEAN_ANOMALY":63.9854,"EPHEMERIS_TYPE":0,"CLASSIFICATION_TYPE":"U","NORAD_CAT_ID":56913,"ELEMENT_SET_NO":999,"REV_AT_EPOCH":572,"BSTAR":0.004564583,"MEAN_MOTION_DOT":0.00074844,"MEAN_MOTION_DDOT":0},{"OBJECT_NAME":"DELTA 1 DEB","OBJECT_ID":"1978-026BU","EPOCH":"2026-03-09T11:22:20.910432","MEAN_MOTION":14.96481719,"ECCENTRICITY":0.00669454,"INCLINATION":98.7967,"RA_OF_ASC_NODE":254.5698,"ARG_OF_PERICENTER":166.8222,"MEAN_ANOMALY":193.4765,"EPHEMERIS_TYPE":0,"CLASSIFICATION_TYPE":"U","NORAD_CAT_ID":12227,"ELEMENT_SET_NO":999,"REV_AT_EPOCH":38498,"BSTAR":0.0006297912,"MEAN_MOTION_DOT":7.412e-5,"MEAN_MOTION_DDOT":0}]
